NORAD_CAT_ID,OBJECT_NAME,OBJECT_TYPE,EPOCH,MEAN_MOTION,ECCENTRICITY,INCLINATION,RA_OF_ASC_NODE,ARG_OF_PERICENTER,MEAN_ANOMALY,BSTAR,MEAN_MOTION_DOT,MEAN_MOTION_DDOT,TLE_LINE0,TLE_LINE1,TLE_LINE2,SEMIMAJOR_AXIS,PERIOD,APOGEE,PERIGEE,DECAYED
52844.0,STARLINK-4208,PAYLOAD,2023-11-26 21:43:43,15.08853054,0.0001473,53.2135,177.1258,92.8949,267.2211,-2.9601e-05,-7.59e-06,0.0,0 STARLINK-4208,1 52844U 22062Q   23330.90536242 -.00000759  00000-0 -29601-4 0  9992,2 52844  53.2135 177.1258 0001473  92.8949 267.2211 15.08853054 79917,6917.84,95.437,540.724,538.686,0.0
52844.0,STARLINK-4208,PAYLOAD,2023-11-27 13:37:35,15.08837987,0.0001793,53.2147,174.1497,80.9904,279.1291,-0.00023131,-3.967e-05,0.0,0 STARLINK-4208,1 52844U 22062Q   23331.56776720 -.00003967  00000-0 -23131-3 0  9997,2 52844  53.2147 174.1497 0001793  80.9904 279.1291 15.08837987 80016,6917.887,95.438,540.992,538.511,0.0
52844.0,STARLINK-4208,PAYLOAD,2023-11-27 19:59:07,15.08843624,0.0001731,53.2148,172.9601,81.3651,278.7537,-0.00021795,-3.755e-05,0.0,0 STARLINK-4208,1 52844U 22062Q   23331.83272732 -.00003755  00000-0 -21795-3 0  9990,2 52844  53.2148 172.9601 0001731  81.3651 278.7537 15.08843624 80547,6917.869,95.437,540.932,538.537,0.0
52844.0,STARLINK-4208,PAYLOAD,2023-11-28 13:28:22,15.0884007,0.0001787,53.2143,169.6886,79.0889,281.0304,0.00017178,2.447e-05,0.0,0 STARLINK-4208,1 52844U 22062Q   23332.56136941  .00002447  00000-0  17178-3 0  9997,2 52844  53.2143 169.6886 0001787  79.0889 281.0304 15.08840070 80167,6917.88,95.438,540.981,538.509,0.0
52844.0,STARLINK-4208,PAYLOAD,2023-11-28 19:49:54,15.08847127,0.0001665,53.2153,168.4981,72.8116,287.3058,0.00020071,2.908e-05,0.0,0 STARLINK-4208,1 52844U 22062Q   23332.82632612  .00002908  00000-0  20071-3 0  9990,2 52844  53.2153 168.4981 0001665  72.8116 287.3058 15.08847127 80200,6917.859,95.437,540.875,538.572,0.0
52844.0,STARLINK-4208,PAYLOAD,2023-11-28 23:00:40,15.0884753,0.0001619,53.2153,167.9044,82.6577,277.4599,0.00022586,3.309e-05,0.0,0 STARLINK-4208,1 52844U 22062Q   23332.95880528  .00003309  00000-0  22586-3 0  9994,2 52844  53.2153 167.9044 0001619  82.6577 277.4599 15.08847530 80717,6917.857,95.437,540.842,538.602,0.0
52844.0,STARLINK-4208,PAYLOAD,2023-11-29 13:19:09,15.08841728,0.0001608,53.2146,165.2254,91.911,268.2067,0.0001312,1.801e-05,0.0,0 STARLINK-4208,1 52844U 22062Q   23333.55496865  .00001801  00000-0  13120-3 0  9997,2 52844  53.2146 165.2254 0001608  91.9110 268.2067 15.08841728 80314,6917.875,95.437,540.853,538.628,0.0
52844.0,STARLINK-4208,PAYLOAD,2023-11-29 18:05:18,15.0884409,0.0001647,53.2157,164.332,102.3357,257.7819,0.00014325,1.993e-05,0.0,0 STARLINK-4208,1 52844U 22062Q   23333.75368815  .00001993  00000-0  14325-3 0  9992,2 52844  53.2157 164.3320 0001647 102.3357 257.7819 15.08844090 80833,6917.868,95.437,540.872,538.594,0.0
52844.0,STARLINK-4208,PAYLOAD,2023-11-30 19:31:28,15.0884236,0.0001482,53.2161,159.5793,85.0221,275.0941,5.5095e-05,5.89e-06,0.0,0 STARLINK-4208,1 52844U 22062Q   23334.81352888  .00000589  00000-0  55095-4 0  9993,2 52844  53.2161 159.5793 0001482  85.0221 275.0941 15.08842360 80996,6917.873,95.437,540.763,538.713,0.0
52844.0,STARLINK-4208,PAYLOAD,2023-12-01 17:46:52,15.08841708,0.0001604,53.2162,155.4175,91.8927,268.2248,0.00010557,1.393e-05,0.0,0 STARLINK-4208,1 52844U 22062Q   23335.74088878  .00001393  00000-0  10557-3 0  9998,2 52844  53.2162 155.4175 0001604  91.8927 268.2248 15.08841708 80641,6917.875,95.437,540.85,538.631,0.0
52844.0,STARLINK-4208,PAYLOAD,2023-12-02 19:13:02,15.08846876,0.0001551,53.216,150.6565,88.2185,271.8985,0.00012659,1.728e-05,0.0,0 STARLINK-4208,1 52844U 22062Q   23336.80072382  .00001728  00000-0  12659-3 0  9996,2 52844  53.2160 150.6565 0001551  88.2185 271.8985 15.08846876 81297,6917.859,95.437,540.797,538.651,0.0
52844.0,STARLINK-4208,PAYLOAD,2023-12-03 11:06:54,15.08837482,0.0001612,53.2166,147.687,93.4691,266.6485,-2.1952e-05,-6.37e-06,0.0,0 STARLINK-4208,1 52844U 22062Q   23337.46312953 -.00000637  00000-0 -21952-4 0  9997,2 52844  53.2166 147.6870 0001612  93.4691 266.6485 15.08837482 81397,6917.888,95.438,540.868,538.638,0.0
52844.0,STARLINK-4208,PAYLOAD,2023-12-03 19:03:50,15.08829529,0.0001385,53.2158,146.1948,92.5513,267.5637,-0.00011425,-2.105e-05,0.0,0 STARLINK-4208,1 52844U 22062Q   23337.79433523 -.00002105  00000-0 -11425-3 0  9995,2 52844  53.2158 146.1948 0001385  92.5513 267.5637 15.08829529 81446,6917.912,95.438,540.736,538.819,0.0
52844.0,STARLINK-4208,PAYLOAD,2023-12-04 10:57:42,15.08833416,0.0001278,53.2162,143.2207,105.0558,255.0576,-5.089e-05,-1.098e-05,0.0,0 STARLINK-4208,1 52844U 22062Q   23338.45674247 -.00001098  00000-0 -50890-4 0  9999,2 52844  53.2162 143.2207 0001278 105.0558 255.0576 15.08833416 81058,6917.901,95.438,540.65,538.881,0.0
52844.0,STARLINK-4208,PAYLOAD,2023-12-05 10:48:29,15.0883403,0.0001216,53.2163,138.762,86.3318,273.7813,0.00018111,2.595e-05,0.0,0 STARLINK-4208,1 52844U 22062Q   23339.45033979  .00002595  00000-0  18111-3 0  9991,2 52844  53.2163 138.7620 0001216  86.3318 273.7813 15.08834030 81698,6917.899,95.438,540.605,538.922,0.0
52844.0,STARLINK-4208,PAYLOAD,2023-12-06 10:39:15,15.08845779,0.0001288,53.2167,134.3006,92.6518,267.4621,9.7771e-05,1.269e-05,0.0,0 STARLINK-4208,1 52844U 22062Q   23340.44393256  .00001269  00000-0  97771-4 0  9996,2 52844  53.2167 134.3006 0001288  92.6518 267.4621 15.08845779 81849,6917.863,95.437,540.619,538.837,0.0
52844.0,STARLINK-4208,PAYLOAD,2023-12-06 20:11:34,15.08846468,0.0001329,53.2165,132.5166,86.0418,274.0726,9.2873e-05,1.191e-05,0.0,0 STARLINK-4208,1 52844U 22062Q   23340.84137106  .00001191  00000-0  92873-4 0  9992,2 52844  53.2165 132.5166 0001329  86.0418 274.0726 15.08846468 81415,6917.861,95.437,540.645,538.806,0.0
52844.0,STARLINK-4208,PAYLOAD,2023-12-07 10:30:03,15.08837375,0.0001325,53.2166,129.84,89.6221,270.4923,1.9994e-05,3e-07,0.0,0 STARLINK-4208,1 52844U 22062Q   23341.43753938  .00000030  00000-0  19994-4 0  9999,2 52844  53.2166 129.8400 0001325  89.6221 270.4923 15.08837375 81992,6917.888,95.438,540.67,538.837,0.0
52844.0,STARLINK-4208,PAYLOAD,2023-12-08 13:31:36,15.08840327,0.0001409,53.2157,124.7832,112.8587,247.2554,1.6728e-05,-2.2e-07,0.0,0 STARLINK-4208,1 52844U 22062Q   23342.56361687 -.00000022  00000-0  16728-4 0  9994,2 52844  53.2157 124.7832 0001409 112.8587 247.2554 15.08840327 81670,6917.879,95.438,540.719,538.77,0.0
52844.0,STARLINK-4208,PAYLOAD,2023-12-09 13:22:23,15.08835832,0.0001307,53.2165,120.3242,103.6079,256.5058,5.3598e-05,5.65e-06,0.0,0 STARLINK-4208,1 52844U 22062Q   23343.55722025  .00000565  00000-0  53598-4 0  9998,2 52844  53.2165 120.3242 0001307 103.6079 256.5058 15.08835832 81821,6917.893,95.438,540.662,538.854,0.0
52844.0,STARLINK-4208,PAYLOAD,2023-12-09 19:43:56,15.08836041,0.0001291,53.2166,119.135,101.6556,258.4581,4.9123e-05,4.94e-06,0.0,0 STARLINK-4208,1 52844U 22062Q   23343.82218095  .00000494  00000-0  49123-4 0  9995,2 52844  53.2166 119.1350 0001291 101.6556 258.4581 15.08836041 82352,6917.892,95.438,540.651,538.864,0.0
52844.0,STARLINK-4208,PAYLOAD,2023-12-10 14:48:33,15.08839759,0.0001277,53.2165,115.5669,101.5483,258.5653,5.9378e-05,6.57e-06,0.0,0 STARLINK-4208,1 52844U 22062Q   23344.61705956  .00000657  00000-0  59378-4 0  9994,2 52844  53.2165 115.5669 0001277 101.5483 258.5653 15.08839759 81984,6917.881,95.438,540.63,538.863,0.0
52844.0,STARLINK-4208,PAYLOAD,2023-12-10 16:23:57,15.08840988,0.0001239,53.2171,115.2695,89.0476,271.0658,6.749e-05,7.86e-06,0.0,0 STARLINK-4208,1 52844U 22062Q   23344.68329910  .00000786  00000-0  67490-4 0  9990,2 52844  53.2171 115.2695 0001239  89.0476 271.0658 15.08840988 81999,6917.877,95.437,540.599,538.885,0.0
52844.0,STARLINK-4208,PAYLOAD,2023-12-11 14:39:21,15.0883845,0.0001296,53.2168,111.1058,73.9469,286.1666,4.304e-05,3.97e-06,0.0,0 STARLINK-4208,1 52844U 22062Q   23345.61066292  .00000397  00000-0  43040-4 0  9998,2 52844  53.2168 111.1058 0001296  73.9469 286.1666 15.08838450 82134,6917.885,95.438,540.647,538.854,0.0
52844.0,STARLINK-4208,PAYLOAD,2023-12-11 16:14:44,15.08839316,0.0001308,53.217,110.8087,74.8607,285.2529,4.8874e-05,4.9e-06,0.0,0 STARLINK-4208,1 52844U 22062Q   23345.67690228  .00000490  00000-0  48874-4 0  9990,2 52844  53.2170 110.8087 0001308  74.8607 285.2529 15.08839316 82638,6917.882,95.438,540.652,538.843,0.0
52844.0,STARLINK-4208,PAYLOAD,2023-12-12 12:54:45,15.08842367,0.0001395,53.2171,106.9453,71.1521,288.9622,4.5553e-05,4.37e-06,0.0,0 STARLINK-4208,1 52844U 22062Q   23346.53802092  .00000437  00000-0  45553-4 0  9992,2 52844  53.2171 106.9453 0001395  71.1521 288.9622 15.08842367 82277,6917.873,95.437,540.703,538.773,0.0
52844.0,STARLINK-4208,PAYLOAD,2023-12-12 14:30:08,15.08843147,0.0001442,53.2171,106.6485,69.2249,290.8897,5.2363e-05,5.46e-06,0.0,0 STARLINK-4208,1 52844U 22062Q   23346.60426038  .00000546  00000-0  52363-4 0  9990,2 52844  53.2171 106.6485 0001442  69.2249 290.8897 15.08843147 82281,6917.871,95.437,540.733,538.738,0.0
52844.0,STARLINK-4208,PAYLOAD,2023-12-13 11:10:08,15.08843556,0.0001283,53.2169,102.782,78.9768,281.1368,6.5059e-05,7.48e-06,0.0,0 STARLINK-4208,1 52844U 22062Q   23347.46537712  .00000748  00000-0  65059-4 0  9997,2 52844  53.2169 102.7820 0001283  78.9768 281.1368 15.08843556 82903,6917.87,95.437,540.622,538.847,0.0
52844.0,STARLINK-4208,PAYLOAD,2023-12-13 12:45:31,15.08844473,0.0001311,53.2173,102.4825,77.6573,282.4566,7.0945e-05,8.41e-06,0.0,0 STARLINK-4208,1 52844U 22062Q   23347.53161613  .00000841  00000-0  70945-4 0  9992,2 52844  53.2173 102.4825 0001311  77.6573 282.4566 15.08844473 82422,6917.867,95.437,540.639,538.825,0.0
52844.0,STARLINK-4208,PAYLOAD,2023-12-14 12:36:18,15.08842262,0.0001379,53.2183,98.0251,93.9115,266.2035,6.8335e-06,-1.79e-06,0.0,0 STARLINK-4208,1 52844U 22062Q   23348.52521805 -.00000179  00000-0  68335-5 0  9991,2 52844  53.2183  98.0251 0001379  93.9115 266.2035 15.08842262 82574,6917.873,95.437,540.692,538.785,0.0
